{"type":"FeatureCollection","features":[{"type":"Feature","properties":{},"geometry":{"type":"Polygon","coordinates":[[[-3.085203,51.781373],[-3.059494,51.757912],[-3.05835,51.716477],[-3.024691,51.698004],[-3.008107,51.704561],[-2.993666,51.721393],[-2.987662,51.73078],[-2.986585,51.7526],[-2.99359,51.766051],[-2.999813,51.768659],[-3.006887,51.77826],[-3.008746,51.784186],[-3.009221,51.79266],[-3.01375,51.797546],[-3.012554,51.803947],[-3.01769,51.811445],[-3.026933,51.815468],[-3.047178,51.819421],[-3.07488,51.803705],[-3.082671,51.786141],[-3.085203,51.781373]]]}}]}